{
  "norad_id": 60130,
  "name": "STARLINK-31838",
  "history": [
    {
      "epoch": "2026-03-28T22:47:21.147648Z",
      "apogee_km": 475.9307093991447,
      "perigee_km": 474.56140346447046,
      "latitude_deg": -3.0245823847918605e-05,
      "longitude_deg": 129.1626068177596,
      "height_km": 476.22783151144876,
      "semi_major_axis_km": 6853.383056431808,
      "eccentricity": 9.99e-05,
      "inclination_deg": 53.1608,
      "raan_deg": 297.3634,
      "arg_perigee_deg": 96.9832,
      "mean_anomaly_deg": 263.1282,
      "mean_motion_rev_day": 15.30189622
    },
    {
      "epoch": "2026-03-28T22:47:21.148512Z",
      "apogee_km": 475.93091500063747,
      "perigee_km": 474.5611978629786,
      "latitude_deg": 4.752964576875818e-05,
      "longitude_deg": 129.16266115219912,
      "height_km": 476.22784487578866,
      "semi_major_axis_km": 6853.383056431808,
      "eccentricity": 9.993e-05,
      "inclination_deg": 53.1608,
      "raan_deg": 297.3634,
      "arg_perigee_deg": 96.9832,
      "mean_anomaly_deg": 263.1283,
      "mean_motion_rev_day": 15.30189622
    },
    {
      "epoch": "2026-03-29T06:37:37.200864Z",
      "apogee_km": 475.9256983114674,
      "perigee_km": 474.55886034799823,
      "latitude_deg": -4.034789146818753e-05,
      "longitude_deg": 9.757024309449921,
      "height_km": 476.2055080905595,
      "semi_major_axis_km": 6853.3792793297325,
      "eccentricity": 9.972e-05,
      "inclination_deg": 53.1608,
      "raan_deg": 295.8466,
      "arg_perigee_deg": 95.4317,
      "mean_anomaly_deg": 264.6797,
      "mean_motion_rev_day": 15.30190887
    },
    {
      "epoch": "2026-03-30T13:58:40.683648Z",
      "apogee_km": 475.9142926611057,
      "perigee_km": 474.5321069760066,
      "latitude_deg": -2.0200839809548258e-05,
      "longitude_deg": -107.86260972178361,
      "height_km": 476.10657975293816,
      "semi_major_axis_km": 6853.360199818556,
      "eccentricity": 0.00010084,
      "inclination_deg": 53.1607,
      "raan_deg": 289.779,
      "arg_perigee_deg": 88.7458,
      "mean_anomaly_deg": 271.3658,
      "mean_motion_rev_day": 15.30197277
    },
    {
      "epoch": "2026-03-30T20:14:52.334592Z",
      "apogee_km": 475.86747766618555,
      "perigee_km": 474.511478489233,
      "latitude_deg": 7.468741104116764e-05,
      "longitude_deg": 156.61801990530938,
      "height_km": 476.1047455409183,
      "semi_major_axis_km": 6853.326478077709,
      "eccentricity": 9.893e-05,
      "inclination_deg": 53.161,
      "raan_deg": 288.5656,
      "arg_perigee_deg": 91.4125,
      "mean_anomaly_deg": 268.699,
      "mean_motion_rev_day": 15.30208571
    },
    {
      "epoch": "2026-03-31T13:29:29.872320Z",
      "apogee_km": 475.9930035494526,
      "perigee_km": 474.6092943871754,
      "latitude_deg": 6.75403692695366e-06,
      "longitude_deg": -106.08491301501572,
      "height_km": 476.13797842741087,
      "semi_major_axis_km": 6853.438148968314,
      "eccentricity": 0.00010095,
      "inclination_deg": 53.1603,
      "raan_deg": 285.2273,
      "arg_perigee_deg": 84.8898,
      "mean_anomaly_deg": 275.2218,
      "mean_motion_rev_day": 15.30171171
    },
    {
      "epoch": "2026-04-01T19:16:29.129952Z",
      "apogee_km": 476.61056246586577,
      "perigee_km": 473.8130254881653,
      "latitude_deg": 3.997592004292382e-05,
      "longitude_deg": 160.18035697347415,
      "height_km": 476.1519980848283,
      "semi_major_axis_km": 6853.348793977016,
      "eccentricity": 0.0002041,
      "inclination_deg": 53.1601,
      "raan_deg": 279.4626,
      "arg_perigee_deg": 91.7707,
      "mean_anomaly_deg": 268.3528,
      "mean_motion_rev_day": 15.30201097
    },
    {
      "epoch": "2026-04-02T18:47:17.352672Z",
      "apogee_km": 476.02310186394607,
      "perigee_km": 474.43312115807566,
      "latitude_deg": 1.7569127907750144e-05,
      "longitude_deg": 161.96355224242808,
      "height_km": 475.9957693363753,
      "semi_major_axis_km": 6853.365111511011,
      "eccentricity": 0.000116,
      "inclination_deg": 53.1577,
      "raan_deg": 274.9124,
      "arg_perigee_deg": 80.5637,
      "mean_anomaly_deg": 279.5495,
      "mean_motion_rev_day": 15.30195632
    }
  ]
}